STARLINK-4396           
1 53637U 22104BB  24216.58543696  .00003337  00000+0  22754-3 0  9992
2 53637  53.2174 321.9629 0001291  99.0400 261.0739 15.08858689107177
STARLINK-4594           
1 53638U 22104BC  24216.59916291  .00015202  00000+0  97094-3 0  9992
2 53638  53.2180 321.3559 0001695  92.3354 267.7832 15.08848007108208
STARLINK-4422           
1 53639U 22104BD  24216.68011497  .00002021  00000+0  14494-3 0  9995
2 53639  53.2176 321.1399 0001093  87.2905 272.8212 15.08861557108047
STARLINK-4597           
1 53640U 22104BE  24216.61021655  .00015353  00000+0  98037-3 0  9994
2 53640  53.2173 321.4185 0001643  85.5423 274.5757 15.08849244108209
STARLINK-4588           
1 53641U 22104BF  24216.62125357  .00000903  00000+0  74763-4 0  9996
2 53641  53.2158 321.4847 0001362  91.6191 268.4957 15.08858798107180
STARLINK-4622           
1 53648U 22105A   24216.90327936  .00003095  00000+0  24540-3 0  9994
2 53648  97.6554  97.0423 0001120 196.3443 163.7745 15.01263727105804
STARLINK-4386           
1 53649U 22105B   24216.63482175  .00001405  00000+0  11395-3 0  9999
2 53649  97.6554  96.7773 0000836 188.7001 171.4209 15.01271856106036
STARLINK-4380           
1 53650U 22105C   24216.63296888  .00001629  00000+0  13138-3 0  9990
2 53650  97.6559  96.7773 0001004 191.4026 168.7176 15.01273934105758
STARLINK-4388           
1 53651U 22105D   24216.63111905  .00000765  00000+0  64105-4 0  9998
2 53651  97.6567  96.7762 0000449 138.5431 221.5827 15.01272006105750
STARLINK-4374           
1 53652U 22105E   24216.62926555  .00001531  00000+0  12372-3 0  9993
2 53652  97.6575  96.7752 0000720 142.2335 217.8940 15.01274405106037
STARLINK-4390           
1 53653U 22105F   24216.91439883  .00002903  00000+0  23050-3 0  9998
2 53653  97.6549  97.0080 0001043  88.5007 271.6337 15.01262283105795
STARLINK-4420           
1 53654U 22105G   24216.95700164  .00000874  00000+0  72618-4 0  9996
2 53654  97.6571  97.1064 0001832  88.6793 271.4641 15.01253309105800
STARLINK-4470           
1 53655U 22105H   24216.62741552  .00001539  00000+0  12435-3 0  9996
2 53655  97.6582  96.7757 0000833 150.2378 209.8894 15.01269566105753
STARLINK-4466           
1 53656U 22105J   24216.95142261 -.00001178  00000+0 -87056-4 0  9998
2 53656  97.6573  97.1111 0002031  96.0638 264.0817 15.01279705105801
STARLINK-4469           
1 53657U 22105K   24216.62556599  .00001691  00000+0  13621-3 0  9990
2 53657  97.6585  96.7767 0000993 114.2678 245.8650 15.01267072105759
STARLINK-4452           
1 53658U 22105L   24216.95327599  .00001594  00000+0  12862-3 0  9991
2 53658  97.6573  97.1066 0001888  99.2889 260.8549 15.01265628105809
STARLINK-4463           
1 53659U 22105M   24216.95537248  .00002062  00000+0  16503-3 0  9993
2 53659  97.6578  97.1060 0001809  92.4416 267.7016 15.01268404105803
STARLINK-4473           
1 53660U 22105N   24216.94771420 -.00002722  00000+0 -20725-3 0  9992
2 53660  97.6568  97.1039 0002437  76.5035 283.6461 15.01291517105800
STARLINK-4472           
1 53661U 22105P   24216.94981595 -.00003449  00000+0 -26383-3 0  9992
2 53661  97.6564  97.1083 0002464  99.3064 260.8439 15.01287615105807
STARLINK-4357           
1 53662U 22105Q   24216.94426906  .00002657  00000+0  21137-3 0  9993
2 53662  97.6564  97.0997 0003294  89.4324 270.7278 15.01261335105804
STARLINK-4457           
1 53663U 22105R   24216.94957517  .00001383  00000+0  11224-3 0  9992
2 53663  97.6576  97.1045 0001997  85.2392 274.9061 15.01259354105804
STARLINK-4471           
1 53664U 22105S   24216.94056375  .00002084  00000+0  16676-3 0  9990
2 53664  97.6552  97.0988 0003173  85.0789 275.0797 15.01259234105805
STARLINK-4334           
1 53665U 22105T   24216.94217182  .00002542  00000+0  20245-3 0  9992
2 53665  97.6563  97.1072 0003042  91.8516 268.3057 15.01260805105801
STARLINK-4449           
1 53666U 22105U   24216.93661975  .00000759  00000+0  63710-4 0  9998
2 53666  97.6539  97.0932 0004820  70.3685 289.8059 15.01261555105806
STARLINK-4406           
1 53667U 22105V   24216.94587674  .00004225  00000+0  33351-3 0  9992
2 53667  97.6568  97.1019 0002722  93.5812 266.5724 15.01240773105804
STARLINK-4458           
1 53668U 22105W   24216.93847432  .00002480  00000+0  19757-3 0  9998
2 53668  97.6550  97.0654 0003937  89.2201 270.9475 15.01261760105804
STARLINK-4464           
1 53669U 22105X   24216.94402531  .00002046  00000+0  16380-3 0  9994
2 53669  97.6563  97.0916 0003666  87.3894 272.7750 15.01260430105805
STARLINK-4459           
1 53670U 22105Y   24216.93476890  .00002050  00000+0  16412-3 0  9995
2 53670  97.6540  97.0845 0004684  81.0936 279.0819 15.01259601105806
STARLINK-4440           
1 53671U 22105Z   24216.93501088 -.00001278  00000+0 -94826-4 0  9993
2 53671  97.6535  97.0880 0004403  85.4128 274.7599 15.01275100105809
STARLINK-4428           
1 53672U 22105AA  24216.92179775 -.00003142  00000+0 -24002-3 0  9997
2 53672  97.6551  97.0859 0002837  80.6565 279.4980 15.01280655105802
STARLINK-4456           
1 53673U 22105AB  24216.62581095  .00002359  00000+0  18817-3 0  9991
2 53673  97.6585  96.7770 0000987  87.7003 272.4334 15.01269320105753
STARLINK-4620           
1 53674U 22105AC  24216.66260481  .00001059  00000+0  87008-4 0  9994
2 53674  97.6544  96.8118 0004836  83.7311 276.4464 15.01268105105760
STARLINK-4617           
1 53675U 22105AD  24216.92365388  .00001741  00000+0  14014-3 0  9990
2 53675  97.6549  97.0866 0003138  91.3755 268.7828 15.01260219105801
STARLINK-4621           
1 53676U 22105AE  24216.92550830 -.00000687  00000+0 -48880-4 0  9998
2 53676  97.6548  97.0682 0003858  87.4369 272.7297 15.01274997105806
STARLINK-4579           
1 53677U 22105AF  24216.93106836  .00004625  00000+0  36431-3 0  9995
2 53677  97.6543  97.0786 0005293  74.6470 285.5339 15.01267552105801
STARLINK-4418           
1 53678U 22105AG  24216.93131422  .00004064  00000+0  32070-3 0  9997
2 53678  97.6547  97.0605 0005486  74.9122 285.2709 15.01267608105807
STARLINK-4632           
1 53679U 22105AH  24216.92736405  .00002311  00000+0  18445-3 0  9992
2 53679  97.6548  97.0720 0004536  88.1660 272.0084 15.01258238105805
STARLINK-4630           
1 53680U 22105AJ  24216.91994942  .00001475  00000+0  11939-3 0  9996
2 53680  97.6550  97.0608 0001529  89.5887 270.5512 15.01264708105808
STARLINK-4424           
1 53681U 22105AK  24216.91809404 -.00000327  00000+0 -20830-4 0  9993
2 53681  97.6549  97.0720 0001382  91.3748 268.7635 15.01275547106085
STARLINK-4438           
1 53682U 22105AL  24216.90883707  .00012137  00000+0  94738-3 0  9998
2 53682  97.6551  97.0662 0001089 234.0710 126.0413 15.01280958105804
STARLINK-4625           
1 53683U 22105AM  24216.92390190  .00002941  00000+0  23348-3 0  9991
2 53683  97.6549  97.0610 0003264  88.9546 271.2052 15.01260552105805
STARLINK-4624           
1 53684U 22105AN  24216.94031840  .00001892  00000+0  15185-3 0  9992
2 53684  97.6554  97.1595 0004672  86.2872 273.8887 15.01260027105803
STARLINK-4626           
1 53685U 22105AP  24216.91648409 -.00002500  00000+0 -18998-3 0  9999
2 53685  97.6549  97.0606 0001184  81.3928 278.7430 15.01285918106088
STARLINK-4467           
1 53686U 22105AQ  24216.95512301  .00002083  00000+0  16674-3 0  9998
2 53686  97.6576  97.1665 0001775  94.2909 265.8518 15.01263188105812
STARLINK-4569           
1 53687U 22105AR  24216.91624315 -.00000448  00000+0 -30256-4 0  9992
2 53687  97.6546  97.0569 0001124  87.4196 272.7157 15.01273346106085
STARLINK-4571           
1 53688U 22105AS  24216.91069263  .00005916  00000+0  46465-3 0  9999
2 53688  97.6550  97.0501 0000488 201.7978 158.3225 15.01269419105808
STARLINK-4562           
1 53689U 22105AT  24216.63136011  .00001704  00000+0  13722-3 0  9996
2 53689  97.6566  96.8099 0000777 173.1230 187.0005 15.01266075105764
STARLINK-4570           
1 53690U 22105AU  24216.93292167  .00002320  00000+0  18512-3 0  9993
2 53690  97.6540  97.0260 0003954  82.0427 278.1246 15.01260078105808
STARLINK-4560           
1 53691U 22105AV  24216.91254258  .00002911  00000+0  23113-3 0  9990
2 53691  97.6549  97.0440 0000423 105.2387 254.8884 15.01261799105809
STARLINK-4572           
1 53692U 22105AW  24216.90698332  .00002614  00000+0  20797-3 0  9990
2 53692  97.6549  97.0455 0000872 194.8987 165.2212 15.01265089105800
STARLINK-4566           
1 53693U 22105AX  24216.90513356  .00001239  00000+0  10099-3 0  9999
2 53693  97.6552  97.0432 0001467 191.9603 168.1586 15.01266347105808
STARLINK-4725           
1 53700U 22107A   24216.67458639  .00006588  00000+0  43142-3 0  9993
2 53700  53.2178 341.0037 0001250  96.3344 263.7790 15.08859587106847
STARLINK-4711           
1 53701U 22107B   24216.73713184  .00004176  00000+0  28021-3 0  9990
2 53701  53.2190 340.6854 0001588  87.3983 272.7191 15.08853408106859
STARLINK-4724           
1 53702U 22107C   24216.69624277  .00016414  00000+0  10464-2 0  9999
2 53702  53.2166 326.1827 0001330  91.6521 268.4624 15.08861021106306
STARLINK-4731           
1 53703U 22107D   24216.61941275  .00004951  00000+0  32889-3 0  9991
2 53703  53.2180 341.3678 0001981 104.7261 255.3951 15.08844723106831
STARLINK-4714           
1 53704U 22107E   24216.66731630  .00004991  00000+0  33141-3 0  9995
2 53704  53.2172 341.6721 0001615  92.2797 267.8380 15.08845673106675
STARLINK-4717           
1 53705U 22107F   24216.72987306  .00024187  00000+0  15319-2 0  9991
2 53705  53.2178 341.3501 0001697  84.3888 275.7298 15.08855602106846
STARLINK-4716           
1 53706U 22107G   24216.78135241  .00002176  00000+0  15465-3 0  9998
2 53706  53.2173 340.9608 0000841 318.6444  41.4485 15.08856656106853
STARLINK-4667           
1 53707U 22107H   24216.70729377  .00001004  00000+0  81211-4 0  9992
2 53707  53.2180 326.2424 0001620 110.8364 249.2802 15.08826448107054
